IRIDIUM 136             
1 42962U 17061H   23254.77286842  .00000225  00000+0  73162-4 0  9999
2 42962  86.3913  87.1128 0002249  92.3620 267.7833 14.34218278310157
